NORAD_CAT_ID,OBJECT_NAME,OBJECT_TYPE,EPOCH,MEAN_MOTION,ECCENTRICITY,INCLINATION,RA_OF_ASC_NODE,ARG_OF_PERICENTER,MEAN_ANOMALY,BSTAR,MEAN_MOTION_DOT,MEAN_MOTION_DDOT,TLE_LINE0,TLE_LINE1,TLE_LINE2,SEMIMAJOR_AXIS,PERIOD,APOGEE,PERIGEE,DECAYED
55771.0,STARLINK-5591,PAYLOAD,2024-08-02 04:57:32,14.98366744,0.000248,69.9984,258.1274,235.7715,124.3209,0.00032685,3.813e-05,0.0,0 STARLINK-5591,1 55771U 23028AG  24215.20662828  .00003813  00000-0  32685-3 0  9990,2 55771  69.9984 258.1274 0002480 235.7715 124.3209 14.98366744 78980,6950.079,96.105,573.668,570.221,0.0
55771.0,STARLINK-5591,PAYLOAD,2024-08-02 12:58:12,14.98371718,0.0002829,69.9983,257.2858,269.9968,90.0866,0.00040003,4.688e-05,0.0,0 STARLINK-5591,1 55771U 23028AG  24215.54041769  .00004688  00000-0  40003-3 0  9996,2 55771  69.9983 257.2858 0002829 269.9968  90.0866 14.98371718 79035,6950.064,96.104,573.895,569.963,0.0
55771.0,STARLINK-5591,PAYLOAD,2024-08-03 04:59:34,14.98335677,0.0003231,69.9977,255.5995,270.182,89.8969,8.1972e-06,5e-08,0.0,0 STARLINK-5591,1 55771U 23028AG  24216.20804193  .00000005  00000-0  81972-5 0  9999,2 55771  69.9977 255.5995 0003231 270.1820  89.8969 14.98335677 79135,6950.175,96.107,574.286,569.795,0.0
55771.0,STARLINK-5591,PAYLOAD,2024-08-03 13:00:16,14.9832366,0.0002812,69.9984,254.7614,274.8378,85.246,-8.1512e-05,-1.065e-05,0.0,0 STARLINK-5591,1 55771U 23028AG  24216.54185243 -.00001065  00000-0 -81512-4 0  9992,2 55771  69.9984 254.7614 0002812 274.8378  85.2460 14.98323660 79185,6950.212,96.107,574.032,570.123,0.0
55771.0,STARLINK-5591,PAYLOAD,2024-08-03 19:24:48,14.98321876,0.0002991,69.9979,254.0867,277.5875,82.4944,-8.2978e-05,-1.083e-05,0.0,0 STARLINK-5591,1 55771U 23028AG  24216.80889412 -.00001083  00000-0 -82978-4 0  9997,2 55771  69.9979 254.0867 0002991 277.5875  82.4944 14.98321876 79220,6950.218,96.108,574.162,570.004,0.0
55771.0,STARLINK-5591,PAYLOAD,2024-08-04 11:26:09,14.98338648,0.0002817,69.9981,252.4045,273.8353,86.2483,-0.00042272,-5.134e-05,0.0,0 STARLINK-5591,1 55771U 23028AG  24217.47649541 -.00005134  00000-0 -42272-3 0  9991,2 55771  69.9981 252.4045 0002817 273.8353  86.2483 14.98338648 79326,6950.166,96.106,573.989,570.073,0.0
55771.0,STARLINK-5591,PAYLOAD,2024-08-05 19:28:50,14.98321574,0.0002795,69.998,249.038,276.2209,83.8632,0.00010872,1.204e-05,0.0,0 STARLINK-5591,1 55771U 23028AG  24218.81169402  .00001204  00000-0  10872-3 0  9996,2 55771  69.9980 249.0380 0002795 276.2209  83.8632 14.98321574 79522,6950.219,96.108,574.027,570.141,0.0
55771.0,STARLINK-5591,PAYLOAD,2024-08-06 11:30:11,14.98315467,0.000284,69.998,247.3544,274.5475,85.536,5.5185e-05,5.65e-06,0.0,0 STARLINK-5591,1 55771U 23028AG  24219.47930450  .00000565  00000-0  55185-4 0  9994,2 55771  69.9980 247.3544 0002840 274.5475  85.5360 14.98315467 79624,6950.238,96.108,574.077,570.129,0.0
55771.0,STARLINK-5591,PAYLOAD,2024-08-07 03:31:32,14.98329615,0.0002911,69.9979,245.6705,274.008,86.0746,1.6311e-05,1.02e-06,0.0,0 STARLINK-5591,1 55771U 23028AG  24220.14689960  .00000102  00000-0  16311-4 0  9992,2 55771  69.9979 245.6705 0002911 274.0080  86.0746 14.98329615 79723,6950.194,96.107,574.082,570.036,0.0
55771.0,STARLINK-5591,PAYLOAD,2024-08-07 11:32:12,14.98329894,0.0002925,69.998,244.829,274.2851,85.7973,1.9928e-05,1.45e-06,0.0,0 STARLINK-5591,1 55771U 23028AG  24220.48069972  .00000145  00000-0  19928-4 0  9998,2 55771  69.9980 244.8290 0002925 274.2851  85.7973 14.98329894 79770,6950.193,96.107,574.091,570.025,0.0
55771.0,STARLINK-5591,PAYLOAD,2024-08-08 11:34:12,14.98334408,0.0003009,69.998,242.3041,273.5479,86.5335,0.00017714,2.021e-05,0.0,0 STARLINK-5591,1 55771U 23028AG  24221.48209294  .00002021  00000-0  17714-3 0  9997,2 55771  69.9980 242.3041 0003009 273.5479  86.5335 14.98334408 79924,6950.179,96.107,574.136,569.953,0.0
55771.0,STARLINK-5591,PAYLOAD,2024-08-09 03:35:33,14.98332157,0.0002935,69.9982,240.6209,273.1599,86.9224,5.6197e-05,5.78e-06,0.0,0 STARLINK-5591,1 55771U 23028AG  24222.14969677  .00000578  00000-0  56197-4 0  9993,2 55771  69.9982 240.6209 0002935 273.1599  86.9224 14.98332157 80022,6950.186,96.107,574.091,570.011,0.0
55771.0,STARLINK-5591,PAYLOAD,2024-08-09 11:36:14,14.98328439,0.0003013,69.9983,239.7794,274.9783,85.1032,0.00014843,1.678e-05,0.0,0 STARLINK-5591,1 55771U 23028AG  24222.48349707  .00001678  00000-0  14843-3 0  9999,2 55771  69.9983 239.7794 0003013 274.9783  85.1032 14.98328439 80074,6950.198,96.107,574.157,569.969,0.0
55771.0,STARLINK-5591,PAYLOAD,2024-08-10 03:37:34,14.98331959,0.0002859,69.9986,238.0967,271.2743,88.8089,-3.0349e-05,-4.55e-06,0.0,0 STARLINK-5591,1 55771U 23028AG  24223.15109720 -.00000455  00000-0 -30349-4 0  9997,2 55771  69.9986 238.0967 0002859 271.2743  88.8089 14.98331959 80178,6950.187,96.107,574.039,570.065,0.0
55771.0,STARLINK-5591,PAYLOAD,2024-08-10 11:38:15,14.98332346,0.000282,69.9985,237.2544,267.9931,92.0906,-1.4619e-05,-2.67e-06,0.0,0 STARLINK-5591,1 55771U 23028AG  24223.48489657 -.00000267  00000-0 -14619-4 0  9996,2 55771  69.9985 237.2544 0002820 267.9931  92.0906 14.98332346 80220,6950.186,96.107,574.011,570.091,0.0
55771.0,STARLINK-5591,PAYLOAD,2024-08-11 10:04:07,14.98332034,0.0002924,69.9984,234.8984,269.6026,90.4798,7.1122e-05,7.56e-06,0.0,0 STARLINK-5591,1 55771U 23028AG  24224.41953417  .00000756  00000-0  71122-4 0  9993,2 55771  69.9984 234.8984 0002924 269.6026  90.4798 14.98332034 80369,6950.187,96.107,574.084,570.019,0.0
55771.0,STARLINK-5591,PAYLOAD,2024-08-11 18:04:47,14.98361184,0.0003163,69.9984,234.0565,275.1761,84.9037,-0.0004442,-5.393e-05,0.0,0 STARLINK-5591,1 55771U 23028AG  24224.75332374 -.00005393  00000-0 -44420-3 0  9997,2 55771  69.9984 234.0565 0003163 275.1761  84.9037 14.98361184 80418,6950.096,96.105,574.16,569.763,0.0
55771.0,STARLINK-5591,PAYLOAD,2024-08-12 03:41:36,14.98329192,0.0003107,69.9983,233.047,272.4627,87.6176,9.7653e-05,1.072e-05,0.0,0 STARLINK-5591,1 55771U 23028AG  24225.15389430  .00001072  00000-0  97653-4 0  9992,2 55771  69.9983 233.0470 0003107 272.4627  87.6176 14.98329192 80473,6950.195,96.107,574.22,569.901,0.0
55771.0,STARLINK-5591,PAYLOAD,2024-08-12 10:06:08,14.98332686,0.0003054,69.9985,232.3737,272.0057,88.0752,0.00012934,1.451e-05,0.0,0 STARLINK-5591,1 55771U 23028AG  24225.42093128  .00001451  00000-0  12934-3 0  9997,2 55771  69.9985 232.3737 0003054 272.0057  88.0752 14.98332686 80519,6950.185,96.107,574.172,569.927,0.0
55771.0,STARLINK-5591,PAYLOAD,2024-08-12 18:06:49,14.98309536,0.0002821,69.9984,231.5313,271.4125,88.6711,0.00055841,6.573e-05,0.0,0 STARLINK-5591,1 55771U 23028AG  24225.75473946  .00006573  00000-0  55841-3 0  9997,2 55771  69.9984 231.5313 0002821 271.4125  88.6711 14.98309536 80563,6950.256,96.108,574.082,570.161,0.0
55771.0,STARLINK-5591,PAYLOAD,2024-08-13 03:43:36,14.98336429,0.0003002,69.9982,230.5213,270.3009,89.7806,7.2498e-05,7.72e-06,0.0,0 STARLINK-5591,1 55771U 23028AG  24226.15528744  .00000772  00000-0  72498-4 0  9992,2 55771  69.9982 230.5213 0003002 270.3009  89.7806 14.98336429 80625,6950.173,96.107,574.124,569.952,0.0
55771.0,STARLINK-5591,PAYLOAD,2024-08-13 10:08:08,14.98339101,0.0002989,69.9982,229.8474,268.9518,91.1299,9.766e-05,1.073e-05,0.0,0 STARLINK-5591,1 55771U 23028AG  24226.42232375  .00001073  00000-0  97660-4 0  9997,2 55771  69.9982 229.8474 0002989 268.9518  91.1299 14.98339101 80663,6950.165,96.106,574.107,569.952,0.0
55771.0,STARLINK-5591,PAYLOAD,2024-08-13 19:44:58,14.98329538,0.0002663,69.9999,228.8358,280.8827,79.2032,-2.0858e-05,-3.42e-06,0.0,0 STARLINK-5591,1 55771U 23028AG  24226.82289421 -.00000342  00000-0 -20858-4 0  9990,2 55771  69.9999 228.8358 0002663 280.8827  79.2032 14.98329538 80728,6950.194,96.107,573.91,570.208,0.0
55771.0,STARLINK-5591,PAYLOAD,2024-08-14 03:45:39,14.98313854,0.0003058,69.9983,227.9961,271.6951,88.3857,-0.00014807,-1.859e-05,0.0,0 STARLINK-5591,1 55771U 23028AG  24227.15670718 -.00001859  00000-0 -14807-3 0  9990,2 55771  69.9983 227.9961 0003058 271.6951  88.3857 14.98313854 80771,6950.243,96.108,574.233,569.982,0.0
55771.0,STARLINK-5591,PAYLOAD,2024-08-14 10:10:11,14.98314883,0.0003,69.9985,227.3234,270.159,89.9226,-0.00013255,-1.674e-05,0.0,0 STARLINK-5591,1 55771U 23028AG  24227.42374797 -.00001674  00000-0 -13255-3 0  9999,2 55771  69.9985 227.3234 0003000 270.1590  89.9226 14.98314883 80815,6950.24,96.108,574.19,570.02,0.0
55771.0,STARLINK-5591,PAYLOAD,2024-08-15 03:47:40,14.98321463,0.0003123,69.9983,225.4711,271.7032,88.377,-8.5999e-05,-1.119e-05,0.0,0 STARLINK-5591,1 55771U 23028AG  24228.15810717 -.00001119  00000-0 -85999-4 0  9996,2 55771  69.9983 225.4711 0003123 271.7032  88.3770 14.98321463 80927,6950.219,96.108,574.255,569.914,0.0
55771.0,STARLINK-5591,PAYLOAD,2024-08-15 08:36:04,14.98324456,0.0003097,69.9984,224.9662,271.5321,88.5484,-6.0075e-05,-8.1e-06,0.0,0 STARLINK-5591,1 55771U 23028AG  24228.35838592 -.00000810  00000-0 -60075-4 0  9994,2 55771  69.9984 224.9662 0003097 271.5321  88.5484 14.98324456 80958,6950.21,96.107,574.228,569.923,0.0
55771.0,STARLINK-5591,PAYLOAD,2024-08-15 16:36:44,14.98327364,0.0003116,69.9984,224.1245,271.9353,88.1449,-3.8292e-05,-5.5e-06,0.0,0 STARLINK-5591,1 55771U 23028AG  24228.69218477 -.00000550  00000-0 -38292-4 0  9992,2 55771  69.9984 224.1245 0003116 271.9353  88.1449 14.98327364 81003,6950.201,96.107,574.232,569.9,0.0
55771.0,STARLINK-5591,PAYLOAD,2024-08-16 08:38:05,14.98323668,0.0003168,69.9983,222.4412,273.2247,86.855,0.00025468,2.947e-05,0.0,0 STARLINK-5591,1 55771U 23028AG  24229.35978637  .00002947  00000-0  25468-3 0  9997,2 55771  69.9983 222.4412 0003168 273.2247  86.8550 14.98323668 81105,6950.212,96.107,574.279,569.876,0.0
55771.0,STARLINK-5591,PAYLOAD,2024-08-17 03:51:41,14.98337817,0.0003195,69.9984,220.4212,272.529,87.5504,0.00025877,2.997e-05,0.0,0 STARLINK-5591,1 55771U 23028AG  24230.16089956  .00002997  00000-0  25877-3 0  9994,2 55771  69.9984 220.4212 0003195 272.5290  87.5504 14.98337817 81223,6950.169,96.106,574.254,569.813,0.0
